ORBCOMM FM05            
1 25117U 97084F   24310.52946631  .00006735  00000+0  19782-2 0  9999
2 25117  45.0160   0.7230 0003004 229.7081 130.3508 14.44325680409192
ORBCOMM FM06            
1 25118U 97084G   24310.50203456  .00007959  00000+0  23224-2 0  9994
2 25118  45.0151   0.8773 0002837 248.7068 244.5256 14.44476447409168
ORBCOMM FM07            
1 25119U 97084H   24310.48011030  .00007288  00000+0  21357-2 0  9997
2 25119  45.0152   1.6504 0003149 214.2755 145.7893 14.44356048409151
ORBCOMM FM03            
1 25158U 98007B   24310.48032430  .00005845  00000+0  21364-2 0  9998
2 25158 107.9671  36.3796 0048783 278.8069  80.7548 14.33292782391970
ORBCOMM FM04            
1 25159U 98007C   24310.50520786  .00005469  00000+0  19961-2 0  9990
2 25159 107.9657  39.4935 0044386 276.3165  83.2920 14.33565052392155
ORBCOMM FM17            
1 25413U 98046A   24310.73421122  .00004141  00000+0  15152-2 0  9999
2 25413  44.9935 231.4977 0001033 181.0895 178.9950 14.34128293371257
ORBCOMM FM18            
1 25414U 98046B   24310.01863636  .00005297  00000+0  18088-2 0  9995
2 25414  44.9908 157.9744 0004217 222.3429 137.7093 14.37215503371986
ORBCOMM FM19            
1 25415U 98046C   24310.57027494  .00005484  00000+0  18772-2 0  9999
2 25415  44.9915 157.0188 0003150 213.7149 190.1473 14.37048893372023
