<?xml version="1.0" encoding="UTF-8"?>
<ndm xmlns:xsi="http://www.w3.org/2001/XMLSchema-instance" xsi:noNamespaceSchemaLocation="https://sanaregistry.org/r/ndmxml_unqualified/ndmxml-2.0.0-master-2.0.xsd">
<omm id="CCSDS_OMM_VERS" version="2.0">
<header><CREATION_DATE/><ORIGINATOR/></header><body><segment><metadata><OBJECT_NAME>ORBCOMM FM05</OBJECT_NAME><OBJECT_ID>1997-084F</OBJECT_ID><CENTER_NAME>EARTH</CENTER_NAME><REF_FRAME>TEME</REF_FRAME><TIME_SYSTEM>UTC</TIME_SYSTEM><MEAN_ELEMENT_THEORY>SGP4</MEAN_ELEMENT_THEORY></metadata><data><meanElements><EPOCH>2024-11-05T12:42:25.889184</EPOCH><MEAN_MOTION>14.44325680</MEAN_MOTION><ECCENTRICITY>.0003004</ECCENTRICITY><INCLINATION>45.0160</INCLINATION><RA_OF_ASC_NODE>0.7230</RA_OF_ASC_NODE><ARG_OF_PERICENTER>229.7081</ARG_OF_PERICENTER><MEAN_ANOMALY>130.3508</MEAN_ANOMALY></meanElements><tleParameters><EPHEMERIS_TYPE>0</EPHEMERIS_TYPE><CLASSIFICATION_TYPE>U</CLASSIFICATION_TYPE><NORAD_CAT_ID>25117</NORAD_CAT_ID><ELEMENT_SET_NO>999</ELEMENT_SET_NO><REV_AT_EPOCH>40919</REV_AT_EPOCH><BSTAR>.19782E-2</BSTAR><MEAN_MOTION_DOT>.6735E-4</MEAN_MOTION_DOT><MEAN_MOTION_DDOT>0</MEAN_MOTION_DDOT></tleParameters></data></segment></body></omm>
<omm id="CCSDS_OMM_VERS" version="2.0">
<header><CREATION_DATE/><ORIGINATOR/></header><body><segment><metadata><OBJECT_NAME>ORBCOMM FM06</OBJECT_NAME><OBJECT_ID>1997-084G</OBJECT_ID><CENTER_NAME>EARTH</CENTER_NAME><REF_FRAME>TEME</REF_FRAME><TIME_SYSTEM>UTC</TIME_SYSTEM><MEAN_ELEMENT_THEORY>SGP4</MEAN_ELEMENT_THEORY></metadata><data><meanElements><EPOCH>2024-11-05T12:02:55.785984</EPOCH><MEAN_MOTION>14.44476447</MEAN_MOTION><ECCENTRICITY>.0002837</ECCENTRICITY><INCLINATION>45.0151</INCLINATION><RA_OF_ASC_NODE>0.8773</RA_OF_ASC_NODE><ARG_OF_PERICENTER>248.7068</ARG_OF_PERICENTER><MEAN_ANOMALY>244.5256</MEAN_ANOMALY></meanElements><tleParameters><EPHEMERIS_TYPE>0</EPHEMERIS_TYPE><CLASSIFICATION_TYPE>U</CLASSIFICATION_TYPE><NORAD_CAT_ID>25118</NORAD_CAT_ID><ELEMENT_SET_NO>999</ELEMENT_SET_NO><REV_AT_EPOCH>40916</REV_AT_EPOCH><BSTAR>.23224E-2</BSTAR><MEAN_MOTION_DOT>.7959E-4</MEAN_MOTION_DOT><MEAN_MOTION_DDOT>0</MEAN_MOTION_DDOT></tleParameters></data></segment></body></omm>
<omm id="CCSDS_OMM_VERS" version="2.0">
<header><CREATION_DATE/><ORIGINATOR/></header><body><segment><metadata><OBJECT_NAME>ORBCOMM FM07</OBJECT_NAME><OBJECT_ID>1997-084H</OBJECT_ID><CENTER_NAME>EARTH</CENTER_NAME><REF_FRAME>TEME</REF_FRAME><TIME_SYSTEM>UTC</TIME_SYSTEM><MEAN_ELEMENT_THEORY>SGP4</MEAN_ELEMENT_THEORY></metadata><data><meanElements><EPOCH>2024-11-05T11:31:21.529920</EPOCH><MEAN_MOTION>14.44356048</MEAN_MOTION><ECCENTRICITY>.0003149</ECCENTRICITY><INCLINATION>45.0152</INCLINATION><RA_OF_ASC_NODE>1.6504</RA_OF_ASC_NODE><ARG_OF_PERICENTER>214.2755</ARG_OF_PERICENTER><MEAN_ANOMALY>145.7893</MEAN_ANOMALY></meanElements><tleParameters><EPHEMERIS_TYPE>0</EPHEMERIS_TYPE><CLASSIFICATION_TYPE>U</CLASSIFICATION_TYPE><NORAD_CAT_ID>25119</NORAD_CAT_ID><ELEMENT_SET_NO>999</ELEMENT_SET_NO><REV_AT_EPOCH>40915</REV_AT_EPOCH><BSTAR>.21357E-2</BSTAR><MEAN_MOTION_DOT>.7288E-4</MEAN_MOTION_DOT><MEAN_MOTION_DDOT>0</MEAN_MOTION_DDOT></tleParameters></data></segment></body></omm>
<omm id="CCSDS_OMM_VERS" version="2.0">
<header><CREATION_DATE/><ORIGINATOR/></header><body><segment><metadata><OBJECT_NAME>ORBCOMM FM03</OBJECT_NAME><OBJECT_ID>1998-007B</OBJECT_ID><CENTER_NAME>EARTH</CENTER_NAME><REF_FRAME>TEME</REF_FRAME><TIME_SYSTEM>UTC</TIME_SYSTEM><MEAN_ELEMENT_THEORY>SGP4</MEAN_ELEMENT_THEORY></metadata><data><meanElements><EPOCH>2024-11-05T11:31:40.019520</EPOCH><MEAN_MOTION>14.33292782</MEAN_MOTION><ECCENTRICITY>.0048783</ECCENTRICITY><INCLINATION>107.9671</INCLINATION><RA_OF_ASC_NODE>36.3796</RA_OF_ASC_NODE><ARG_OF_PERICENTER>278.8069</ARG_OF_PERICENTER><MEAN_ANOMALY>80.7548</MEAN_ANOMALY></meanElements><tleParameters><EPHEMERIS_TYPE>0</EPHEMERIS_TYPE><CLASSIFICATION_TYPE>U</CLASSIFICATION_TYPE><NORAD_CAT_ID>25158</NORAD_CAT_ID><ELEMENT_SET_NO>999</ELEMENT_SET_NO><REV_AT_EPOCH>39197</REV_AT_EPOCH><BSTAR>.21364E-2</BSTAR><MEAN_MOTION_DOT>.5845E-4</MEAN_MOTION_DOT><MEAN_MOTION_DDOT>0</MEAN_MOTION_DDOT></tleParameters></data></segment></body></omm>
<omm id="CCSDS_OMM_VERS" version="2.0">
<header><CREATION_DATE/><ORIGINATOR/></header><body><segment><metadata><OBJECT_NAME>ORBCOMM FM04</OBJECT_NAME><OBJECT_ID>1998-007C</OBJECT_ID><CENTER_NAME>EARTH</CENTER_NAME><REF_FRAME>TEME</REF_FRAME><TIME_SYSTEM>UTC</TIME_SYSTEM><MEAN_ELEMENT_THEORY>SGP4</MEAN_ELEMENT_THEORY></metadata><data><meanElements><EPOCH>2024-11-05T12:07:29.959104</EPOCH><MEAN_MOTION>14.33565052</MEAN_MOTION><ECCENTRICITY>.0044386</ECCENTRICITY><INCLINATION>107.9657</INCLINATION><RA_OF_ASC_NODE>39.4935</RA_OF_ASC_NODE><ARG_OF_PERICENTER>276.3165</ARG_OF_PERICENTER><MEAN_ANOMALY>83.2920</MEAN_ANOMALY></meanElements><tleParameters><EPHEMERIS_TYPE>0</EPHEMERIS_TYPE><CLASSIFICATION_TYPE>U</CLASSIFICATION_TYPE><NORAD_CAT_ID>25159</NORAD_CAT_ID><ELEMENT_SET_NO>999</ELEMENT_SET_NO><REV_AT_EPOCH>39215</REV_AT_EPOCH><BSTAR>.19961E-2</BSTAR><MEAN_MOTION_DOT>.5469E-4</MEAN_MOTION_DOT><MEAN_MOTION_DDOT>0</MEAN_MOTION_DDOT></tleParameters></data></segment></body></omm>
<omm id="CCSDS_OMM_VERS" version="2.0">
<header><CREATION_DATE/><ORIGINATOR/></header><body><segment><metadata><OBJECT_NAME>ORBCOMM FM17</OBJECT_NAME><OBJECT_ID>1998-046A</OBJECT_ID><CENTER_NAME>EARTH</CENTER_NAME><REF_FRAME>TEME</REF_FRAME><TIME_SYSTEM>UTC</TIME_SYSTEM><MEAN_ELEMENT_THEORY>SGP4</MEAN_ELEMENT_THEORY></metadata><data><meanElements><EPOCH>2024-11-05T17:37:15.849408</EPOCH><MEAN_MOTION>14.34128293</MEAN_MOTION><ECCENTRICITY>.0001033</ECCENTRICITY><INCLINATION>44.9935</INCLINATION><RA_OF_ASC_NODE>231.4977</RA_OF_ASC_NODE><ARG_OF_PERICENTER>181.0895</ARG_OF_PERICENTER><MEAN_ANOMALY>178.9950</MEAN_ANOMALY></meanElements><tleParameters><EPHEMERIS_TYPE>0</EPHEMERIS_TYPE><CLASSIFICATION_TYPE>U</CLASSIFICATION_TYPE><NORAD_CAT_ID>25413</NORAD_CAT_ID><ELEMENT_SET_NO>999</ELEMENT_SET_NO><REV_AT_EPOCH>37125</REV_AT_EPOCH><BSTAR>.15152E-2</BSTAR><MEAN_MOTION_DOT>.4141E-4</MEAN_MOTION_DOT><MEAN_MOTION_DDOT>0</MEAN_MOTION_DDOT></tleParameters></data></segment></body></omm>
<omm id="CCSDS_OMM_VERS" version="2.0">
<header><CREATION_DATE/><ORIGINATOR/></header><body><segment><metadata><OBJECT_NAME>ORBCOMM FM18</OBJECT_NAME><OBJECT_ID>1998-046B</OBJECT_ID><CENTER_NAME>EARTH</CENTER_NAME><REF_FRAME>TEME</REF_FRAME><TIME_SYSTEM>UTC</TIME_SYSTEM><MEAN_ELEMENT_THEORY>SGP4</MEAN_ELEMENT_THEORY></metadata><data><meanElements><EPOCH>2024-11-05T00:26:50.181504</EPOCH><MEAN_MOTION>14.37215503</MEAN_MOTION><ECCENTRICITY>.0004217</ECCENTRICITY><INCLINATION>44.9908</INCLINATION><RA_OF_ASC_NODE>157.9744</RA_OF_ASC_NODE><ARG_OF_PERICENTER>222.3429</ARG_OF_PERICENTER><MEAN_ANOMALY>137.7093</MEAN_ANOMALY></meanElements><tleParameters><EPHEMERIS_TYPE>0</EPHEMERIS_TYPE><CLASSIFICATION_TYPE>U</CLASSIFICATION_TYPE><NORAD_CAT_ID>25414</NORAD_CAT_ID><ELEMENT_SET_NO>999</ELEMENT_SET_NO><REV_AT_EPOCH>37198</REV_AT_EPOCH><BSTAR>.18088E-2</BSTAR><MEAN_MOTION_DOT>.5297E-4</MEAN_MOTION_DOT><MEAN_MOTION_DDOT>0</MEAN_MOTION_DDOT></tleParameters></data></segment></body></omm>
<omm id="CCSDS_OMM_VERS" version="2.0">
<header><CREATION_DATE/><ORIGINATOR/></header><body><segment><metadata><OBJECT_NAME>ORBCOMM FM19</OBJECT_NAME><OBJECT_ID>1998-046C</OBJECT_ID><CENTER_NAME>EARTH</CENTER_NAME><REF_FRAME>TEME</REF_FRAME><TIME_SYSTEM>UTC</TIME_SYSTEM><MEAN_ELEMENT_THEORY>SGP4</MEAN_ELEMENT_THEORY></metadata><data><meanElements><EPOCH>2024-11-05T13:41:11.754816</EPOCH><MEAN_MOTION>14.37048893</MEAN_MOTION><ECCENTRICITY>.000315</ECCENTRICITY><INCLINATION>44.9915</INCLINATION><RA_OF_ASC_NODE>157.0188</RA_OF_ASC_NODE><ARG_OF_PERICENTER>213.7149</ARG_OF_PERICENTER><MEAN_ANOMALY>190.1473</MEAN_ANOMALY></meanElements><tleParameters><EPHEMERIS_TYPE>0</EPHEMERIS_TYPE><CLASSIFICATION_TYPE>U</CLASSIFICATION_TYPE><NORAD_CAT_ID>25415</NORAD_CAT_ID><ELEMENT_SET_NO>999</ELEMENT_SET_NO><REV_AT_EPOCH>37202</REV_AT_EPOCH><BSTAR>.18772E-2</BSTAR><MEAN_MOTION_DOT>.5484E-4</MEAN_MOTION_DOT><MEAN_MOTION_DDOT>0</MEAN_MOTION_DDOT></tleParameters></data></segment></body></omm>

</ndm>
